ATLAS CENTAUR R/B       
1 06155U 72065B   26033.42260236  .00001471  00000+0  20418-3 0  9996
2 06155  35.0004 152.4128 0033164  72.9130 287.5200 14.77578107836045
SL-8 R/B                
1 08459U 75112B   26033.44494608  .00000225  00000+0  82506-4 0  9998
2 08459  74.0597  83.7516 0015698 188.6410 171.4476 14.38185452626800
SL-3 R/B                
1 10114U 77057B   26033.42013123  .00012554  00000+0  27290-3 0  9992
2 10114  97.5717 203.8284 0008373  55.6467 304.5571 15.44447047662881
SEASAT 1                
1 10967U 78064A   26033.01040836  .00000300  00000+0  12226-3 0  9992
2 10967 108.0164  50.6209 0001428 290.5033  69.5959 14.46128387501355
SL-14 R/B               
1 11267U 79011B   26033.50233914  .00000768  00000+0  73331-4 0  9997
2 11267  82.5261 129.9554 0016304 169.9426 190.2124 14.91861206523534
SL-8 R/B                
1 11574U 79089B   26033.51068059  .00000296  00000+0  97538-4 0  9991
2 11574  74.0695 156.1596 0016300 333.5734  26.4589 14.42326930431031
SL-14 R/B               
1 11672U 80005B   26033.35802402  .00000801  00000+0  78648-4 0  9993
2 11672  82.5170 340.7399 0014152 283.1896  76.7743 14.90879168471220
SL-8 R/B                
1 12139U 81003B   26033.28925984  .00023965  00000+0  63639-3 0  9993
2 12139  82.9400 322.7236 0264784 302.4197  55.1666 15.09616738309336
SL-3 R/B                
1 12465U 81046B   26033.40690455  .00012789  00000+0  30726-3 0  9991
2 12465  81.2351 332.0682 0020353 137.5844 222.6976 15.40984250432998
SL-3 R/B                
1 12904U 81103B   26033.44842230  .00004312  00000+0  19325-3 0  9992
2 12904  81.1562 254.7676 0014077  46.6437 313.5964 15.20940455967870
SL-3 R/B                
1 13068U 82013B   26033.47171354  .00005038  00000+0  22067-3 0  9993
2 13068  81.1730 202.0310 0021868 299.7820  60.1236 15.21615682398993
SL-3 R/B                
1 13154U 82039B   26033.46936942  .00002281  00000+0  13796-3 0  9994
2 13154  81.1626 256.5553 0030072  79.7001 280.7612 15.09881438376321
