CCSDS_OMM_VERS = 2.0
CREATION_DATE  = 
ORIGINATOR     = 

OBJECT_NAME    = ATLAS CENTAUR R/B
OBJECT_ID      = 1972-065B
CENTER_NAME    = EARTH
REF_FRAME      = TEME
TIME_SYSTEM    = UTC
MEAN_ELEMENT_THEORY = SGP/SGP4

EPOCH          = 2026-02-02T10:08:32.843904
MEAN_MOTION    = 14.77578107
ECCENTRICITY   = .0033164
INCLINATION    = 35.0004
RA_OF_ASC_NODE = 152.4128
ARG_OF_PERICENTER = 72.9130
MEAN_ANOMALY   = 287.5200

EPHEMERIS_TYPE = 0
CLASSIFICATION_TYPE = U
NORAD_CAT_ID   = 6155
ELEMENT_SET_NO = 999
REV_AT_EPOCH   = 83604
BSTAR          = .20418E-3
MEAN_MOTION_DOT = .1471E-4
MEAN_MOTION_DDOT = 0

CCSDS_OMM_VERS = 2.0
CREATION_DATE  = 
ORIGINATOR     = 

OBJECT_NAME    = SL-8 R/B
OBJECT_ID      = 1975-112B
CENTER_NAME    = EARTH
REF_FRAME      = TEME
TIME_SYSTEM    = UTC
MEAN_ELEMENT_THEORY = SGP/SGP4

EPOCH          = 2026-02-02T10:40:43.341312
MEAN_MOTION    = 14.38185452
ECCENTRICITY   = .0015698
INCLINATION    = 74.0597
RA_OF_ASC_NODE = 83.7516
ARG_OF_PERICENTER = 188.6410
MEAN_ANOMALY   = 171.4476

EPHEMERIS_TYPE = 0
CLASSIFICATION_TYPE = U
NORAD_CAT_ID   = 8459
ELEMENT_SET_NO = 999
REV_AT_EPOCH   = 62680
BSTAR          = .82506E-4
MEAN_MOTION_DOT = .225E-5
MEAN_MOTION_DDOT = 0

CCSDS_OMM_VERS = 2.0
CREATION_DATE  = 
ORIGINATOR     = 

OBJECT_NAME    = SL-3 R/B
OBJECT_ID      = 1977-057B
CENTER_NAME    = EARTH
REF_FRAME      = TEME
TIME_SYSTEM    = UTC
MEAN_ELEMENT_THEORY = SGP/SGP4

EPOCH          = 2026-02-02T10:04:59.338272
MEAN_MOTION    = 15.44447047
ECCENTRICITY   = .0008373
INCLINATION    = 97.5717
RA_OF_ASC_NODE = 203.8284
ARG_OF_PERICENTER = 55.6467
MEAN_ANOMALY   = 304.5571

EPHEMERIS_TYPE = 0
CLASSIFICATION_TYPE = U
NORAD_CAT_ID   = 10114
ELEMENT_SET_NO = 999
REV_AT_EPOCH   = 66288
BSTAR          = .2729E-3
MEAN_MOTION_DOT = .12554E-3
MEAN_MOTION_DDOT = 0

CCSDS_OMM_VERS = 2.0
CREATION_DATE  = 
ORIGINATOR     = 

OBJECT_NAME    = SEASAT 1
OBJECT_ID      = 1978-064A
CENTER_NAME    = EARTH
REF_FRAME      = TEME
TIME_SYSTEM    = UTC
MEAN_ELEMENT_THEORY = SGP/SGP4

EPOCH          = 2026-02-02T00:14:59.282304
MEAN_MOTION    = 14.46128387
ECCENTRICITY   = .00014283
INCLINATION    = 108.0164
RA_OF_ASC_NODE = 50.6209
ARG_OF_PERICENTER = 290.5033
MEAN_ANOMALY   = 69.5959

EPHEMERIS_TYPE = 0
CLASSIFICATION_TYPE = U
NORAD_CAT_ID   = 10967
ELEMENT_SET_NO = 999
REV_AT_EPOCH   = 50135
BSTAR          = .12226468E-3
MEAN_MOTION_DOT = .3E-5
MEAN_MOTION_DDOT = 0

CCSDS_OMM_VERS = 2.0
CREATION_DATE  = 
ORIGINATOR     = 

OBJECT_NAME    = SL-14 R/B
OBJECT_ID      = 1979-011B
CENTER_NAME    = EARTH
REF_FRAME      = TEME
TIME_SYSTEM    = UTC
MEAN_ELEMENT_THEORY = SGP/SGP4

EPOCH          = 2026-02-02T12:03:22.101696
MEAN_MOTION    = 14.91861206
ECCENTRICITY   = .0016304
INCLINATION    = 82.5261
RA_OF_ASC_NODE = 129.9554
ARG_OF_PERICENTER = 169.9426
MEAN_ANOMALY   = 190.2124

EPHEMERIS_TYPE = 0
CLASSIFICATION_TYPE = U
NORAD_CAT_ID   = 11267
ELEMENT_SET_NO = 999
REV_AT_EPOCH   = 52353
BSTAR          = .73331E-4
MEAN_MOTION_DOT = .768E-5
MEAN_MOTION_DDOT = 0

CCSDS_OMM_VERS = 2.0
CREATION_DATE  = 
ORIGINATOR     = 

OBJECT_NAME    = SL-8 R/B
OBJECT_ID      = 1979-089B
CENTER_NAME    = EARTH
REF_FRAME      = TEME
TIME_SYSTEM    = UTC
MEAN_ELEMENT_THEORY = SGP/SGP4

EPOCH          = 2026-02-02T12:15:22.802976
MEAN_MOTION    = 14.42326930
ECCENTRICITY   = .00163
INCLINATION    = 74.0695
RA_OF_ASC_NODE = 156.1596
ARG_OF_PERICENTER = 333.5734
MEAN_ANOMALY   = 26.4589

EPHEMERIS_TYPE = 0
CLASSIFICATION_TYPE = U
NORAD_CAT_ID   = 11574
ELEMENT_SET_NO = 999
REV_AT_EPOCH   = 43103
BSTAR          = .97538E-4
MEAN_MOTION_DOT = .296E-5
MEAN_MOTION_DDOT = 0

CCSDS_OMM_VERS = 2.0
CREATION_DATE  = 
ORIGINATOR     = 

OBJECT_NAME    = SL-14 R/B
OBJECT_ID      = 1980-005B
CENTER_NAME    = EARTH
REF_FRAME      = TEME
TIME_SYSTEM    = UTC
MEAN_ELEMENT_THEORY = SGP/SGP4

EPOCH          = 2026-02-02T08:35:33.275328
MEAN_MOTION    = 14.90879168
ECCENTRICITY   = .0014152
INCLINATION    = 82.5170
RA_OF_ASC_NODE = 340.7399
ARG_OF_PERICENTER = 283.1896
MEAN_ANOMALY   = 76.7743

EPHEMERIS_TYPE = 0
CLASSIFICATION_TYPE = U
NORAD_CAT_ID   = 11672
ELEMENT_SET_NO = 999
REV_AT_EPOCH   = 47122
BSTAR          = .78648E-4
MEAN_MOTION_DOT = .801E-5
MEAN_MOTION_DDOT = 0

CCSDS_OMM_VERS = 2.0
CREATION_DATE  = 
ORIGINATOR     = 

OBJECT_NAME    = SL-8 R/B
OBJECT_ID      = 1981-003B
CENTER_NAME    = EARTH
REF_FRAME      = TEME
TIME_SYSTEM    = UTC
MEAN_ELEMENT_THEORY = SGP/SGP4

EPOCH          = 2026-02-02T06:56:32.050176
MEAN_MOTION    = 15.09616738
ECCENTRICITY   = .0264784
INCLINATION    = 82.9400
RA_OF_ASC_NODE = 322.7236
ARG_OF_PERICENTER = 302.4197
MEAN_ANOMALY   = 55.1666

EPHEMERIS_TYPE = 0
CLASSIFICATION_TYPE = U
NORAD_CAT_ID   = 12139
ELEMENT_SET_NO = 999
REV_AT_EPOCH   = 30933
BSTAR          = .63639E-3
MEAN_MOTION_DOT = .23965E-3
MEAN_MOTION_DDOT = 0

CCSDS_OMM_VERS = 2.0
CREATION_DATE  = 
ORIGINATOR     = 

OBJECT_NAME    = SL-3 R/B
OBJECT_ID      = 1981-046B
CENTER_NAME    = EARTH
REF_FRAME      = TEME
TIME_SYSTEM    = UTC
MEAN_ELEMENT_THEORY = SGP/SGP4

EPOCH          = 2026-02-02T09:45:56.553120
MEAN_MOTION    = 15.40984250
ECCENTRICITY   = .0020353
INCLINATION    = 81.2351
RA_OF_ASC_NODE = 332.0682
ARG_OF_PERICENTER = 137.5844
MEAN_ANOMALY   = 222.6976

EPHEMERIS_TYPE = 0
CLASSIFICATION_TYPE = U
NORAD_CAT_ID   = 12465
ELEMENT_SET_NO = 999
REV_AT_EPOCH   = 43299
BSTAR          = .30726E-3
MEAN_MOTION_DOT = .12789E-3
MEAN_MOTION_DDOT = 0

CCSDS_OMM_VERS = 2.0
CREATION_DATE  = 
ORIGINATOR     = 

OBJECT_NAME    = SL-3 R/B
OBJECT_ID      = 1981-103B
CENTER_NAME    = EARTH
REF_FRAME      = TEME
TIME_SYSTEM    = UTC
MEAN_ELEMENT_THEORY = SGP/SGP4

EPOCH          = 2026-02-02T10:45:43.686720
MEAN_MOTION    = 15.20940455
ECCENTRICITY   = .0014077
INCLINATION    = 81.1562
RA_OF_ASC_NODE = 254.7676
ARG_OF_PERICENTER = 46.6437
MEAN_ANOMALY   = 313.5964

EPHEMERIS_TYPE = 0
CLASSIFICATION_TYPE = U
NORAD_CAT_ID   = 12904
ELEMENT_SET_NO = 999
REV_AT_EPOCH   = 96787
BSTAR          = .19325E-3
MEAN_MOTION_DOT = .4312E-4
MEAN_MOTION_DDOT = 0

CCSDS_OMM_VERS = 2.0
CREATION_DATE  = 
ORIGINATOR     = 

OBJECT_NAME    = SL-3 R/B
OBJECT_ID      = 1982-013B
CENTER_NAME    = EARTH
REF_FRAME      = TEME
TIME_SYSTEM    = UTC
MEAN_ELEMENT_THEORY = SGP/SGP4

EPOCH          = 2026-02-02T11:19:16.049856
MEAN_MOTION    = 15.21615682
ECCENTRICITY   = .0021868
INCLINATION    = 81.1730
RA_OF_ASC_NODE = 202.0310
ARG_OF_PERICENTER = 299.7820
MEAN_ANOMALY   = 60.1236

EPHEMERIS_TYPE = 0
CLASSIFICATION_TYPE = U
NORAD_CAT_ID   = 13068
ELEMENT_SET_NO = 999
REV_AT_EPOCH   = 39899
BSTAR          = .22067E-3
MEAN_MOTION_DOT = .5038E-4
MEAN_MOTION_DDOT = 0

CCSDS_OMM_VERS = 2.0
CREATION_DATE  = 
ORIGINATOR     = 

OBJECT_NAME    = SL-3 R/B
OBJECT_ID      = 1982-039B
CENTER_NAME    = EARTH
REF_FRAME      = TEME
TIME_SYSTEM    = UTC
MEAN_ELEMENT_THEORY = SGP/SGP4

EPOCH          = 2026-02-02T11:15:53.517888
MEAN_MOTION    = 15.09881438
ECCENTRICITY   = .0030072
INCLINATION    = 81.1626
RA_OF_ASC_NODE = 256.5553
ARG_OF_PERICENTER = 79.7001
MEAN_ANOMALY   = 280.7612

EPHEMERIS_TYPE = 0
CLASSIFICATION_TYPE = U
NORAD_CAT_ID   = 13154
ELEMENT_SET_NO = 999
REV_AT_EPOCH   = 37632
BSTAR          = .13796E-3
MEAN_MOTION_DOT = .2281E-4
MEAN_MOTION_DDOT = 0

